NORAD_CAT_ID,OBJECT_NAME,OBJECT_TYPE,EPOCH,MEAN_MOTION,ECCENTRICITY,INCLINATION,RA_OF_ASC_NODE,ARG_OF_PERICENTER,MEAN_ANOMALY,BSTAR,MEAN_MOTION_DOT,MEAN_MOTION_DDOT,TLE_LINE0,TLE_LINE1,TLE_LINE2,SEMIMAJOR_AXIS,PERIOD,APOGEE,PERIGEE,DECAYED
52135.0,STARLINK-3729,PAYLOAD,2024-04-01 17:50:50,15.08841849,0.0001486,53.218,2.7359,100.659,259.4569,-2.6363e-05,-7.08e-06,0.0,0 STARLINK-3729,1 52135U 22029AZ  24092.74363890 -.00000708  00000-0 -26363-4 0  9999,2 52135  53.2180   2.7359 0001486 100.6590 259.4569 15.08841849114210,6917.875,95.437,540.768,538.712,0.0
52135.0,STARLINK-3729,PAYLOAD,2024-04-02 11:20:05,15.08833497,0.0001152,53.2178,359.464,107.7037,252.4081,0.0008331,0.00012993,0.0,0 STARLINK-3729,1 52135U 22029AZ  24093.47228475  .00012993  00000-0  83310-3 0  9990,2 52135  53.2178 359.4640 0001152 107.7037 252.4081 15.08833497114320,6917.9,95.438,540.562,538.968,0.0
52135.0,STARLINK-3729,PAYLOAD,2024-04-02 20:52:25,15.08814145,0.0001221,53.2173,357.6829,99.7471,260.3659,0.00010584,1.396e-05,0.0,0 STARLINK-3729,1 52135U 22029AZ  24093.86973495  .00001396  00000-0  10584-3 0  9990,2 52135  53.2173 357.6829 0001221  99.7471 260.3659 15.08814145114387,6917.959,95.439,540.669,538.98,0.0
52135.0,STARLINK-3729,PAYLOAD,2024-04-03 00:03:11,15.08821158,0.0001982,53.2182,357.087,102.7698,257.3516,0.0002156,3.143e-05,0.0,0 STARLINK-3729,1 52135U 22029AZ  24094.00221727  .00003143  00000-0  21560-3 0  9999,2 52135  53.2182 357.0870 0001982 102.7698 257.3516 15.08821158114400,6917.938,95.439,541.174,538.432,0.0
52135.0,STARLINK-3729,PAYLOAD,2024-04-03 20:43:12,15.08842457,0.0001362,53.217,353.2213,106.5175,253.5967,0.0007801,0.0001215,0.0,0 STARLINK-3729,1 52135U 22029AZ  24094.86334092  .00012150  00000-0  78010-3 0  9993,2 52135  53.2170 353.2213 0001362 106.5175 253.5967 15.08842457114537,6917.873,95.437,540.68,538.796,0.0
52135.0,STARLINK-3729,PAYLOAD,2024-04-04 03:04:45,15.08859618,0.0001333,53.2173,352.0317,106.1636,253.9503,0.0012355,0.0001944,0.0,0 STARLINK-3729,1 52135U 22029AZ  24095.12829867  .00019440  00000-0  12355-2 0  9990,2 52135  53.2173 352.0317 0001333 106.1636 253.9503 15.08859618114579,6917.82,95.436,540.608,538.763,0.0
52135.0,STARLINK-3729,PAYLOAD,2024-04-04 20:33:58,15.08865865,0.0001382,53.2175,348.7598,108.9201,251.1941,0.00077238,0.00012034,0.0,0 STARLINK-3729,1 52135U 22029AZ  24095.85693137  .00012034  00000-0  77238-3 0  9993,2 52135  53.2175 348.7598 0001382 108.9201 251.1941 15.08865865114685,6917.801,95.436,540.622,538.71,0.0
52135.0,STARLINK-3729,PAYLOAD,2024-04-04 22:09:21,15.0886424,0.0001345,53.2173,348.4624,108.8785,251.2353,0.00066929,0.00010387,0.0,0 STARLINK-3729,1 52135U 22029AZ  24095.92317083  .00010387  00000-0  66929-3 0  9998,2 52135  53.2173 348.4624 0001345 108.8785 251.2353 15.08864240114690,6917.806,95.436,540.602,538.741,0.0
52135.0,STARLINK-3729,PAYLOAD,2024-04-05 09:17:03,15.08871431,0.0001226,53.2173,346.3821,103.3053,256.8076,0.0006659,0.00010335,0.0,0 STARLINK-3729,1 52135U 22029AZ  24096.38684273  .00010335  00000-0  66590-3 0  9994,2 52135  53.2173 346.3821 0001226 103.3053 256.8076 15.08871431114763,6917.784,95.436,540.497,538.801,0.0
52135.0,STARLINK-3729,PAYLOAD,2024-04-05 20:24:45,15.08845908,0.0001363,53.2171,344.3005,93.7062,266.4086,-8.7528e-05,-1.681e-05,0.0,0 STARLINK-3729,1 52135U 22029AZ  24096.85052710 -.00001681  00000-0 -87528-4 0  9992,2 52135  53.2171 344.3005 0001363  93.7062 266.4086 15.08845908114833,6917.862,95.437,540.67,538.784,0.0
52135.0,STARLINK-3729,PAYLOAD,2024-04-05 22:00:08,15.08846251,0.0001378,53.2174,344.0034,92.9904,267.1246,-7.2025e-05,-1.434e-05,0.0,0 STARLINK-3729,1 52135U 22029AZ  24096.91676670 -.00001434  00000-0 -72025-4 0  9998,2 52135  53.2174 344.0034 0001378  92.9904 267.1246 15.08846251114846,6917.861,95.437,540.68,538.773,0.0
52135.0,STARLINK-3729,PAYLOAD,2024-04-06 09:07:50,15.08854572,0.0001415,53.2178,341.9225,90.0011,270.1143,0.00018446,2.65e-05,0.0,0 STARLINK-3729,1 52135U 22029AZ  24097.38044190  .00002650  00000-0  18446-3 0  9991,2 52135  53.2178 341.9225 0001415  90.0011 270.1143 15.08854572114911,6917.836,95.437,540.68,538.722,0.0
52135.0,STARLINK-3729,PAYLOAD,2024-04-06 17:04:46,15.08842365,0.000211,53.2185,340.4377,96.5881,263.5351,5.1032e-05,5.24e-06,0.0,0 STARLINK-3729,1 52135U 22029AZ  24097.71164651  .00000524  00000-0  51032-4 0  9990,2 52135  53.2185 340.4377 0002110  96.5881 263.5351 15.08842365114969,6917.873,95.437,541.198,538.278,0.0
52135.0,STARLINK-3729,PAYLOAD,2024-04-06 21:50:55,15.08835382,0.0001993,53.2204,339.5479,98.4337,261.6881,-0.0001322,-2.391e-05,0.0,0 STARLINK-3729,1 52135U 22029AZ  24097.91036895 -.00002391  00000-0 -13220-3 0  9992,2 52135  53.2204 339.5479 0001993  98.4337 261.6881 15.08835382114999,6917.895,95.438,541.138,538.381,0.0
52135.0,STARLINK-3729,PAYLOAD,2024-04-07 08:58:37,15.08844942,0.0001418,53.218,337.4622,91.2374,268.878,2.4248e-06,-2.49e-06,0.0,0 STARLINK-3729,1 52135U 22029AZ  24098.37404571 -.00000249  00000-0  24248-5 0  9996,2 52135  53.2180 337.4622 0001418  91.2374 268.8780 15.08844942115061,6917.865,95.437,540.711,538.749,0.0
52135.0,STARLINK-3729,PAYLOAD,2024-04-07 21:41:43,15.08835622,0.0001555,53.2185,335.0828,87.0325,273.0845,4.5567e-05,4.37e-06,0.0,0 STARLINK-3729,1 52135U 22029AZ  24098.90397323  .00000437  00000-0  45567-4 0  9995,2 52135  53.2185 335.0828 0001555  87.0325 273.0845 15.08835622115143,6917.894,95.438,540.835,538.683,0.0
52135.0,STARLINK-3729,PAYLOAD,2024-04-08 00:52:29,15.0883392,0.0001477,53.2181,334.4886,88.8514,271.2647,0.00011029,1.467e-05,0.0,0 STARLINK-3729,1 52135U 22029AZ  24099.03645472  .00001467  00000-0  11029-3 0  9990,2 52135  53.2181 334.4886 0001477  88.8514 271.2647 15.08833920115169,6917.899,95.438,540.786,538.742,0.0
52135.0,STARLINK-3729,PAYLOAD,2024-04-08 08:49:24,15.08849513,0.0001447,53.2178,332.9994,83.2304,276.8852,0.00020189,2.927e-05,0.0,0 STARLINK-3729,1 52135U 22029AZ  24099.36764674  .00002927  00000-0  20189-3 0  9991,2 52135  53.2178 332.9994 0001447  83.2304 276.8852 15.08849513115211,6917.851,95.437,540.717,538.715,0.0
52135.0,STARLINK-3729,PAYLOAD,2024-04-08 23:07:53,15.08841999,0.0001391,53.2173,330.3244,85.9972,274.118,0.00016881,2.4e-05,0.0,0 STARLINK-3729,1 52135U 22029AZ  24099.96381118  .00002400  00000-0  16881-3 0  9995,2 52135  53.2173 330.3244 0001391  85.9972 274.1180 15.08841999115309,6917.874,95.437,540.702,538.777,0.0
52135.0,STARLINK-3729,PAYLOAD,2024-04-09 08:40:11,15.08850382,0.0001401,53.2179,328.5408,92.5093,267.6059,0.00024034,3.54e-05,0.0,0 STARLINK-3729,1 52135U 22029AZ  24100.36124636  .00003540  00000-0  24034-3 0  9997,2 52135  53.2179 328.5408 0001401  92.5093 267.6059 15.08850382115360,6917.849,95.437,540.683,538.744,0.0
52135.0,STARLINK-3729,PAYLOAD,2024-04-09 21:23:17,15.08840402,0.0001369,53.2183,326.1602,94.6048,265.5101,0.00012993,1.781e-05,0.0,0 STARLINK-3729,1 52135U 22029AZ  24100.89117158  .00001781  00000-0  12993-3 0  9992,2 52135  53.2183 326.1602 0001369  94.6048 265.5101 15.08840402115447,6917.879,95.438,540.691,538.797,0.0
52135.0,STARLINK-3729,PAYLOAD,2024-04-10 00:34:03,15.08842153,0.0001453,53.2176,325.5664,91.5717,268.5442,5.2125e-05,5.42e-06,0.0,0 STARLINK-3729,1 52135U 22029AZ  24101.02364977  .00000542  00000-0  52125-4 0  9997,2 52135  53.2176 325.5664 0001453  91.5717 268.5442 15.08842153115461,6917.874,95.437,540.744,538.734,0.0
52135.0,STARLINK-3729,PAYLOAD,2024-04-10 08:30:58,15.08844837,0.000144,53.2179,324.0793,92.5116,267.6041,7.9216e-05,9.73e-06,0.0,0 STARLINK-3729,1 52135U 22029AZ  24101.35484892  .00000973  00000-0  79216-4 0  9990,2 52135  53.2179 324.0793 0001440  92.5116 267.6041 15.08844837115513,6917.866,95.437,540.727,538.734,0.0
52135.0,STARLINK-3729,PAYLOAD,2024-04-10 21:14:04,15.08839931,0.0001284,53.217,321.7017,86.2041,273.9098,8.1568e-05,1.011e-05,0.0,0 STARLINK-3729,1 52135U 22029AZ  24101.88477173  .00001011  00000-0  81568-4 0  9999,2 52135  53.2170 321.7017 0001284  86.2041 273.9098 15.08839931115599,6917.881,95.438,540.634,538.857,0.0
52135.0,STARLINK-3729,PAYLOAD,2024-04-11 00:24:50,15.08843629,0.0001289,53.2166,321.1067,86.7341,273.3799,8.1263e-05,1.006e-05,0.0,0 STARLINK-3729,1 52135U 22029AZ  24102.01724992  .00001006  00000-0  81263-4 0  9995,2 52135  53.2166 321.1067 0001289  86.7341 273.3799 15.08843629115610,6917.869,95.437,540.626,538.843,0.0
52135.0,STARLINK-3729,PAYLOAD,2024-04-11 21:04:51,15.08839223,0.0001325,53.216,317.2393,93.3247,266.7896,0.0001371,1.895e-05,0.0,0 STARLINK-3729,1 52135U 22029AZ  24102.87837404  .00001895  00000-0  13710-3 0  9999,2 52135  53.2160 317.2393 0001325  93.3247 266.7896 15.08839223115745,6917.883,95.438,540.664,538.831,0.0
52135.0,STARLINK-3729,PAYLOAD,2024-04-12 00:15:37,15.08840355,0.0001277,53.216,316.6444,91.5724,268.5414,0.00012175,1.65e-05,0.0,0 STARLINK-3729,1 52135U 22029AZ  24103.01085348  .00001650  00000-0  12175-3 0  9991,2 52135  53.2160 316.6444 0001277  91.5724 268.5414 15.08840355115767,6917.879,95.438,540.628,538.861,0.0
52135.0,STARLINK-3729,PAYLOAD,2024-04-13 19:11:02,15.0884134,0.000123,53.2162,308.6148,88.7023,271.411,0.00011102,1.48e-05,0.0,0 STARLINK-3729,1 52135U 22029AZ  24104.79933463  .00001480  00000-0  11102-3 0  9997,2 52135  53.2162 308.6148 0001230  88.7023 271.4110 15.08841340116032,6917.876,95.437,540.592,538.89,0.0
52135.0,STARLINK-3729,PAYLOAD,2024-04-14 20:37:12,15.08840739,0.0001232,53.2164,303.8549,92.9305,267.1828,0.00018423,2.645e-05,0.0,0 STARLINK-3729,1 52135U 22029AZ  24105.85917585  .00002645  00000-0  18423-3 0  9999,2 52135  53.2164 303.8549 0001232  92.9305 267.1828 15.08840739116194,6917.878,95.438,540.595,538.891,0.0
52135.0,STARLINK-3729,PAYLOAD,2024-04-15 12:31:04,15.08840943,0.000123,53.2162,300.8833,95.7627,264.3505,0.00013242,1.82e-05,0.0,0 STARLINK-3729,1 52135U 22029AZ  24106.52157710  .00001820  00000-0  13242-3 0  9998,2 52135  53.2162 300.8833 0001230  95.7627 264.3505 15.08840943116290,6917.878,95.437,540.593,538.892,0.0
